INTELSAT 23 (IS-23)     
1 38867U 12057A   26193.05342876 -.00000282  00000+0  00000+0 0  9994
2 38867   0.0104  20.3339 0000257 169.0156  66.8251  1.00274699 50204
FM-6                    
1 39360U 13058A   26193.18350507 -.00000013  00000+0  00000+0 0  9991
2 39360   0.0192  49.6836 0001317 130.2494  59.8505  1.00271113 46329
INTELSAT 30 (IS-30)     
1 40271U 14062A   26193.00772596 -.00000147  00000+0  00000+0 0  9995
2 40271   0.0184  49.2622 0001386 332.1811 176.1990  1.00271461  7047
DIRECTV 14              
1 40333U 14078B   26193.11556865 -.00000122  00000+0  00000+0 0  9995
2 40333   0.0121  42.0289 0000270 266.6736 283.6692  1.00269944 42297
DIRECTV 15              
1 40663U 15026A   26193.11487530 -.00000100  00000+0  00000+0 0  9993
2 40663   0.0198  71.5918 0000203 199.4156 317.4885  1.00271732 40711
SKY MEXICO-1            
1 40664U 15026B   26193.11964198 -.00000231  00000+0  00000+0 0  9999
2 40664   0.0171  13.0234 0002311 121.6852 119.5807  1.00270854 40705
INTELSAT 34 (IS-34)     
1 40874U 15039A   26193.12428443 -.00000283  00000+0  00000+0 0  9992
2 40874   0.0109   7.8780 0000395 341.4074 289.9886  1.00271628 39880
INTELSAT 31 (IS-31)     
1 41581U 16035A   26193.11643530 -.00000148  00000+0  00000+0 0  9990
2 41581   0.0142 291.6947 0001139 347.3339 317.8533  1.00271659 36934
INTELSAT 36 (IS-36)     
1 41747U 16053A   26193.17872299 -.00000021  00000+0  00000+0 0  9996
2 41747   0.0100   6.3128 0002513 334.1019  82.4891  1.00269839 36209
INTELSAT 32E (IS-32E)   
1 41945U 17007B   26192.84151602  .00000000  00000+0  00000+0 0  9993
2 41945   0.0258  38.9305 0000463 266.3977 244.1878  1.00270600 34479
INTELSAT 35E (IS-35E)   
1 42818U 17041A   26193.19652204 -.00000236  00000+0  00000+0 0  9996
2 42818   0.0176  40.7308 0001587  69.1540 216.4592  1.00269978 33060
INTELSAT 37E (IS-37E)   
1 42950U 17059A   26192.84656384 -.00000137  00000+0  00000+0 0  9996
2 42950   0.0138  61.5341 0002491  56.4889  98.4865  1.00270571 32312
AZERSPACE 2 (IS-38)     
1 43632U 18074A   26192.21739435  .00000000  00000+0  00000+0 0  9990
2 43632   0.0273  38.7820 0001235  92.2329 281.4917  1.00270656 28681
HORIZONS-3E             
1 43633U 18074B   26193.09732265 -.00000028  00000+0  00000+0 0  9993
2 43633   0.0365 227.6158 0000928  52.1658 214.2500  1.00270909 28598
AT&T T-16               
1 44333U 19034A   26192.97271212 -.00000112  00000+0  00000+0 0  9998
2 44333   0.0126  63.9799 0000801 261.0994 214.1134  1.00271094 25884
INTELSAT 39 (IS-39)     
1 44476U 19049B   26193.14751124  .00000000  00000+0  00000+0 0  9992
2 44476   0.0252  37.2708 0001126 296.1992  71.6331  1.00265902 25374
GALAXY 30 (G-30)        
1 46114U 20056C   26193.18177171  .00000039  00000+0  00000+0 0  9993
2 46114   0.0035 102.4883 0001945  12.0468 115.9727  1.00270881 21543
GALAXY 33 (G-33)        
1 54026U 22128A   26193.18021171  .00000082  00000+0  00000+0 0  9992
2 54026   0.0061  40.8581 0001761  78.4977 102.5938  1.00271103 13994
GALAXY 34 (G-34)        
1 54027U 22128B   26192.04037516  .00000067  00000+0  00000+0 0  9990
2 54027   0.0112  37.5715 0001349  92.1383  44.7761  1.00269972 14151
GALAXY 31 (G-31)        
1 54243U 22153A   26193.18255174  .00000000  00000+0  00000+0 0  9993
2 54243   0.0257  60.8113 0000939  59.2464 114.7341  1.00270088  7389
GALAXY 32 (G-32)        
1 54244U 22153B   26192.26174809 -.00000167  00000+0  00000+0 0  9992
2 54244   0.0115  41.9388 0001456   4.2849 246.1793  1.00271069 13387
GALAXY 35 (G-35)        
1 54741U 22170A   26193.11678198  .00000000  00000+0  00000+0 0  9993
2 54741   0.0215  53.4133 0001873  63.5924 121.9480  1.00269195 13145
GALAXY 36 (G-36)        
1 54742U 22170B   26193.11764866 -.00000182  00000+0  00000+0 0  9994
2 54742   0.0287 111.1132 0002361 348.7092 143.5481  1.00271080 13027
GALAXY 37 (G-37)        
1 57493U 23112A   26193.18142506  .00000051  00000+0  00000+0 0  9999
2 57493   0.0167  68.1665 0001745  48.1130 112.1053  1.00270803 10791
