OBJECT_NAME,OBJECT_ID,EPOCH,MEAN_MOTION,ECCENTRICITY,INCLINATION,RA_OF_ASC_NODE,ARG_OF_PERICENTER,MEAN_ANOMALY,EPHEMERIS_TYPE,CLASSIFICATION_TYPE,NORAD_CAT_ID,ELEMENT_SET_NO,REV_AT_EPOCH,BSTAR,MEAN_MOTION_DOT,MEAN_MOTION_DDOT
INTELSAT 23 (IS-23),2012-057A,2026-07-12T01:16:56.244864,1.00274699,.0000257,0.0104,20.3339,169.0156,66.8251,0,U,38867,999,5020,0,-.282E-5,0
FM-6,2013-058A,2026-07-12T04:24:14.838048,1.00271113,.0001317,0.0192,49.6836,130.2494,59.8505,0,U,39360,999,4632,0,-.13E-6,0
INTELSAT 30 (IS-30),2014-062A,2026-07-12T00:11:07.522944,1.00271461,.0001386,0.0184,49.2622,332.1811,176.1990,0,U,40271,999,704,0,-.147E-5,0
DIRECTV 14,2014-078B,2026-07-12T02:46:25.131360,1.00269944,.000027,0.0121,42.0289,266.6736,283.6692,0,U,40333,999,4229,0,-.122E-5,0
DIRECTV 15,2015-026A,2026-07-12T02:45:25.225920,1.00271732,.0000203,0.0198,71.5918,199.4156,317.4885,0,U,40663,999,4071,0,-.1E-5,0
SKY MEXICO-1,2015-026B,2026-07-12T02:52:17.067072,1.00270854,.0002311,0.0171,13.0234,121.6852,119.5807,0,U,40664,999,4070,0,-.231E-5,0
INTELSAT 34 (IS-34),2015-039A,2026-07-12T02:58:58.174752,1.00271628,.0000395,0.0109,7.8780,341.4074,289.9886,0,U,40874,999,3988,0,-.283E-5,0
INTELSAT 31 (IS-31),2016-035A,2026-07-12T02:47:40.009920,1.00271659,.0001139,0.0142,291.6947,347.3339,317.8533,0,U,41581,999,3693,0,-.148E-5,0
INTELSAT 36 (IS-36),2016-053A,2026-07-12T04:17:21.666336,1.00269839,.0002513,0.0100,6.3128,334.1019,82.4891,0,U,41747,999,3620,0,-.21E-6,0
INTELSAT 32E (IS-32E),2017-007B,2026-07-11T20:11:46.984128,1.00270600,.0000463,0.0258,38.9305,266.3977,244.1878,0,U,41945,999,3447,0,0,0
INTELSAT 35E (IS-35E),2017-041A,2026-07-12T04:42:59.504256,1.00269978,.0001587,0.0176,40.7308,69.1540,216.4592,0,U,42818,999,3306,0,-.236E-5,0
INTELSAT 37E (IS-37E),2017-059A,2026-07-11T20:19:03.115776,1.00270571,.00024915,0.0138,61.5341,56.4889,98.4865,0,U,42950,999,3231,0,-.137E-5,0
AZERSPACE 2 (IS-38),2018-074A,2026-07-11T05:13:02.871840,1.00270656,.0001235,0.0273,38.7820,92.2329,281.4917,0,U,43632,999,2868,0,0,0
HORIZONS-3E,2018-074B,2026-07-12T02:20:08.676960,1.00270909,.0000928,0.0365,227.6158,52.1658,214.2500,0,U,43633,999,2859,0,-.28E-6,0
AT&T T-16,2019-034A,2026-07-11T23:20:42.327168,1.00271094,.0000801,0.0126,63.9799,261.0994,214.1134,0,U,44333,999,2588,0,-.112E-5,0
INTELSAT 39 (IS-39),2019-049B,2026-07-12T03:32:24.971136,1.00265902,.0001126,0.0252,37.2708,296.1992,71.6331,0,U,44476,999,2537,0,0,0
GALAXY 30 (G-30),2020-056C,2026-07-12T04:21:45.075744,1.00270881,.0001945,0.0035,102.4883,12.0468,115.9727,0,U,46114,999,2154,0,.39E-6,0
GALAXY 33 (G-33),2022-128A,2026-07-12T04:19:30.291744,1.00271103,.0001761,0.0061,40.8581,78.4977,102.5938,0,U,54026,999,1399,0,.82E-6,0
GALAXY 34 (G-34),2022-128B,2026-07-11T00:58:08.413824,1.00269972,.00013492,0.0112,37.5715,92.1383,44.7761,0,U,54027,999,1415,0,.67E-6,0
GALAXY 31 (G-31),2022-153A,2026-07-12T04:22:52.470336,1.00270088,.0000939,0.0257,60.8113,59.2464,114.7341,0,U,54243,999,738,0,0,0
GALAXY 32 (G-32),2022-153B,2026-07-11T06:16:55.034976,1.00271069,.00014569,0.0115,41.9388,4.2849,246.1793,0,U,54244,999,1338,0,-.167E-5,0
GALAXY 35 (G-35),2022-170A,2026-07-12T02:48:09.963072,1.00269195,.0001873,0.0215,53.4133,63.5924,121.9480,0,U,54741,999,1314,0,0,0
GALAXY 36 (G-36),2022-170B,2026-07-12T02:49:24.844224,1.00271080,.0002361,0.0287,111.1132,348.7092,143.5481,0,U,54742,999,1302,0,-.182E-5,0
GALAXY 37 (G-37),2023-112A,2026-07-12T04:21:15.125184,1.00270803,.0001745,0.0167,68.1665,48.1130,112.1053,0,U,57493,999,1079,0,.51E-6,0
